ISS (ZARYA)             
1 25544U 98067A   24265.41666667  .00019135  00000-0  34292-3 0  9992
2 25544  51.6415 283.1962 0002872  47.6543  55.3384 15.50146626470154
NOAA 18                 
1 28654U 05018A   24265.12345678  .00000012  00000-0  12345-4 0  9995
2 28654  99.1234  12.3456 0001234  12.3456 347.6543 14.12345678123456